[{"OBJECT_NAME":"TEN-KOH","OBJECT_ID":"2018-084G","EPOCH":"2026-03-09T23:23:52.653408","MEAN_MOTION":15.02465351,"ECCENTRICITY":0.0011972,"INCLINATION":98.0798,"RA_OF_ASC_NODE":257.1735,"ARG_OF_PERICENTER":91.8355,"MEAN_ANOMALY":268.424,"EPHEMERIS_TYPE":0,"CLASSIFICATION_TYPE":"U","NORAD_CAT_ID":43677,"ELEMENT_SET_NO":999,"REV_AT_EPOCH":40126,"BSTAR":0.00025918134,"MEAN_MOTION_DOT":3.377e-5,"MEAN_MOTION_DDOT":0},{"OBJECT_NAME":"STARLINK-6210","OBJECT_ID":"2023-064AP","EPOCH":"2026-03-09T13:19:56.082144","MEAN_MOTION":14.98328019,"ECCENTRICITY":0.0003351,"INCLINATION":69.9996,"RA_OF_ASC_NODE":124.6164,"ARG_OF_PERICENTER":268.0882,"MEAN_ANOMALY":91.9893,"EPHEMERIS_TYPE":0,"CLASSIFICATION_TYPE":"U","NORAD_CAT_ID":56485,"ELEMENT_SET_NO":999,"REV_AT_EPOCH":15572,"BSTAR":-4.4768e-5,"MEAN_MOTION_DOT":-6.27e-6,"MEAN_MOTION_DDOT":0}]
